[
  {
    "COMMENT": "GENERATED VIA SPACETRACK.ORG API",
    "ORIGINATOR": "18 SPCS",
    "NORAD_CAT_ID": "25260",
    "OBJECT_NAME": "SPOT 4",
    "OBJECT_TYPE": "PAYLOAD",
    "CLASSIFICATION_TYPE": "U",
    "INTLDES": "98017A",
    "EPOCH": "2023-04-05 09:23:00",
    "EPOCH_MICROSECONDS": "763584",
    "MEAN_MOTION": "14.54109541",
    "ECCENTRICITY": "0.0012065",
    "INCLINATION": "98.2606",
    "RA_OF_ASC_NODE": "189.2979",
    "ARG_OF_PERICENTER": "229.5752",
    "MEAN_ANOMALY": "130.4393",
    "EPHEMERIS_TYPE": "0",
    "ELEMENT_SET_NO": "999",
    "REV_AT_EPOCH": "30933",
    "BSTAR": "0.00018828",
    "MEAN_MOTION_DOT": "0.00000751",
    "MEAN_MOTION_DDOT": "0",
    "FILE": "3880853",
    "TLE_LINE0": "0 SPOT 4",
    "TLE_LINE1": "1 25260U 98017A   23095.39098106  .00000751  00000-0  18828-3 0  9998",
    "TLE_LINE2": "2 25260  98.2606 189.2979 0012065 229.5752 130.4393 14.54109541309334",
    "OBJECT_ID": "1998-017A",
    "OBJECT_NUMBER": "25260",
    "SEMIMAJOR_AXIS": "7090.395",
    "PERIOD": "99.030",
    "APOGEE": "720.814",
    "PERIGEE": "703.705",
    "DECAYED": "0"
  },
  {
    "COMMENT": "GENERATED VIA SPACETRACK.ORG API",
    "ORIGINATOR": "18 SPCS",
    "NORAD_CAT_ID": "25260",
    "OBJECT_NAME": "SPOT 4",
    "OBJECT_TYPE": "PAYLOAD",
    "CLASSIFICATION_TYPE": "U",
    "INTLDES": "98017A",
    "EPOCH": "2023-04-05 09:23:00",
    "EPOCH_MICROSECONDS": "763584",
    "MEAN_MOTION": "14.54109541",
    "ECCENTRICITY": "0.0012065",
    "INCLINATION": "98.2606",
    "RA_OF_ASC_NODE": "189.2979",
    "ARG_OF_PERICENTER": "229.5752",
    "MEAN_ANOMALY": "130.4393",
    "EPHEMERIS_TYPE": "0",
    "ELEMENT_SET_NO": "999",
    "REV_AT_EPOCH": "30957",
    "BSTAR": "0.00018828",
    "MEAN_MOTION_DOT": "0.00000751",
    "MEAN_MOTION_DDOT": "0",
    "FILE": "3880859",
    "TLE_LINE0": "0 SPOT 4",
    "TLE_LINE1": "1 25260U 98017A   23095.39098106  .00000751  00000-0  18828-3 0  9998",
    "TLE_LINE2": "2 25260  98.2606 189.2979 0012065 229.5752 130.4393 14.54109541309570",
    "OBJECT_ID": "1998-017A",
    "OBJECT_NUMBER": "25260",
    "SEMIMAJOR_AXIS": "7090.395",
    "PERIOD": "99.030",
    "APOGEE": "720.814",
    "PERIGEE": "703.705",
    "DECAYED": "0"
  },
  {
    "COMMENT": "GENERATED VIA SPACETRACK.ORG API",
    "ORIGINATOR": "18 SPCS",
    "NORAD_CAT_ID": "25260",
    "OBJECT_NAME": "SPOT 4",
    "OBJECT_TYPE": "PAYLOAD",
    "CLASSIFICATION_TYPE": "U",
    "INTLDES": "98017A",
    "EPOCH": "2023-04-05 20:56:37",
    "EPOCH_MICROSECONDS": "775616",
    "MEAN_MOTION": "14.54110061",
    "ECCENTRICITY": "0.0012093",
    "INCLINATION": "98.2605",
    "RA_OF_ASC_NODE": "189.7733",
    "ARG_OF_PERICENTER": "227.9984",
    "MEAN_ANOMALY": "132.0183",
    "EPHEMERIS_TYPE": "0",
    "ELEMENT_SET_NO": "999",
    "REV_AT_EPOCH": "30964",
    "BSTAR": "0.00017604",
    "MEAN_MOTION_DOT": "0.00000699",
    "MEAN_MOTION_DDOT": "0",
    "FILE": "3881105",
    "TLE_LINE0": "0 SPOT 4",
    "TLE_LINE1": "1 25260U 98017A   23095.87265944  .00000699  00000-0  17604-3 0  9999",
    "TLE_LINE2": "2 25260  98.2605 189.7733 0012093 227.9984 132.0183 14.54110061309644",
    "OBJECT_ID": "1998-017A",
    "OBJECT_NUMBER": "25260",
    "SEMIMAJOR_AXIS": "7090.393",
    "PERIOD": "99.030",
    "APOGEE": "720.833",
    "PERIGEE": "703.684",
    "DECAYED": "0"
  },
  {
    "COMMENT": "GENERATED VIA SPACETRACK.ORG API",
    "ORIGINATOR": "18 SPCS",
    "NORAD_CAT_ID": "25260",
    "OBJECT_NAME": "SPOT 4",
    "OBJECT_TYPE": "PAYLOAD",
    "CLASSIFICATION_TYPE": "U",
    "INTLDES": "98017A",
    "EPOCH": "2023-04-05 20:56:37",
    "EPOCH_MICROSECONDS": "775616",
    "MEAN_MOTION": "14.54110061",
    "ECCENTRICITY": "0.0012093",
    "INCLINATION": "98.2605",
    "RA_OF_ASC_NODE": "189.7733",
    "ARG_OF_PERICENTER": "227.9984",
    "MEAN_ANOMALY": "132.0183",
    "EPHEMERIS_TYPE": "0",
    "ELEMENT_SET_NO": "999",
    "REV_AT_EPOCH": "30940",
    "BSTAR": "0.00017604",
    "MEAN_MOTION_DOT": "0.00000699",
    "MEAN_MOTION_DDOT": "0",
    "FILE": "3881153",
    "TLE_LINE0": "0 SPOT 4",
    "TLE_LINE1": "1 25260U 98017A   23095.87265944  .00000699  00000-0  17604-3 0  9999",
    "TLE_LINE2": "2 25260  98.2605 189.7733 0012093 227.9984 132.0183 14.54110061309408",
    "OBJECT_ID": "1998-017A",
    "OBJECT_NUMBER": "25260",
    "SEMIMAJOR_AXIS": "7090.393",
    "PERIOD": "99.030",
    "APOGEE": "720.833",
    "PERIGEE": "703.684",
    "DECAYED": "0"
  },
  {
    "COMMENT": "GENERATED VIA SPACETRACK.ORG API",
    "ORIGINATOR": "18 SPCS",
    "NORAD_CAT_ID": "25260",
    "OBJECT_NAME": "SPOT 4",
    "OBJECT_TYPE": "PAYLOAD",
    "CLASSIFICATION_TYPE": "U",
    "INTLDES": "98017A",
    "EPOCH": "2023-04-06 05:12:04",
    "EPOCH_MICROSECONDS": "195872",
    "MEAN_MOTION": "14.54110497",
    "ECCENTRICITY": "0.0012108",
    "INCLINATION": "98.2605",
    "RA_OF_ASC_NODE": "190.1129",
    "ARG_OF_PERICENTER": "226.859",
    "MEAN_ANOMALY": "133.1595",
    "EPHEMERIS_TYPE": "0",
    "ELEMENT_SET_NO": "999",
    "REV_AT_EPOCH": "30969",
    "BSTAR": "0.00016961",
    "MEAN_MOTION_DOT": "0.00000672",
    "MEAN_MOTION_DDOT": "0",
    "FILE": "3881453",
    "TLE_LINE0": "0 SPOT 4",
    "TLE_LINE1": "1 25260U 98017A   23096.21671523  .00000672  00000-0  16961-3 0  9998",
    "TLE_LINE2": "2 25260  98.2605 190.1129 0012108 226.8590 133.1595 14.54110497309694",
    "OBJECT_ID": "1998-017A",
    "OBJECT_NUMBER": "25260",
    "SEMIMAJOR_AXIS": "7090.392",
    "PERIOD": "99.030",
    "APOGEE": "720.842",
    "PERIGEE": "703.672",
    "DECAYED": "0"
  },
  {
    "COMMENT": "GENERATED VIA SPACETRACK.ORG API",
    "ORIGINATOR": "18 SPCS",
    "NORAD_CAT_ID": "25260",
    "OBJECT_NAME": "SPOT 4",
    "OBJECT_TYPE": "PAYLOAD",
    "CLASSIFICATION_TYPE": "U",
    "INTLDES": "98017A",
    "EPOCH": "2023-04-06 05:12:04",
    "EPOCH_MICROSECONDS": "195872",
    "MEAN_MOTION": "14.54110497",
    "ECCENTRICITY": "0.0012108",
    "INCLINATION": "98.2605",
    "RA_OF_ASC_NODE": "190.1129",
    "ARG_OF_PERICENTER": "226.859",
    "MEAN_ANOMALY": "133.1595",
    "EPHEMERIS_TYPE": "0",
    "ELEMENT_SET_NO": "999",
    "REV_AT_EPOCH": "30945",
    "BSTAR": "0.00016961",
    "MEAN_MOTION_DOT": "0.00000672",
    "MEAN_MOTION_DDOT": "0",
    "FILE": "3881771",
    "TLE_LINE0": "0 SPOT 4",
    "TLE_LINE1": "1 25260U 98017A   23096.21671523  .00000672  00000-0  16961-3 0  9998",
    "TLE_LINE2": "2 25260  98.2605 190.1129 0012108 226.8590 133.1595 14.54110497309458",
    "OBJECT_ID": "1998-017A",
    "OBJECT_NUMBER": "25260",
    "SEMIMAJOR_AXIS": "7090.392",
    "PERIOD": "99.030",
    "APOGEE": "720.842",
    "PERIGEE": "703.672",
    "DECAYED": "0"
  },
  {
    "COMMENT": "GENERATED VIA SPACETRACK.ORG API",
    "ORIGINATOR": "18 SPCS",
    "NORAD_CAT_ID": "25260",
    "OBJECT_NAME": "SPOT 4",
    "OBJECT_TYPE": "PAYLOAD",
    "CLASSIFICATION_TYPE": "U",
    "INTLDES": "98017A",
    "EPOCH": "2023-04-06 16:45:41",
    "EPOCH_MICROSECONDS": "172480",
    "MEAN_MOTION": "14.54111179",
    "ECCENTRICITY": "0.001213",
    "INCLINATION": "98.2606",
    "RA_OF_ASC_NODE": "190.5884",
    "ARG_OF_PERICENTER": "225.2541",
    "MEAN_ANOMALY": "134.767",
    "EPHEMERIS_TYPE": "0",
    "ELEMENT_SET_NO": "999",
    "REV_AT_EPOCH": "30976",
    "BSTAR": "0.00016561",
    "MEAN_MOTION_DOT": "0.00000655",
    "MEAN_MOTION_DDOT": "0",
    "FILE": "3881974",
    "TLE_LINE0": "0 SPOT 4",
    "TLE_LINE1": "1 25260U 98017A   23096.69839320  .00000655  00000-0  16561-3 0  9998",
    "TLE_LINE2": "2 25260  98.2606 190.5884 0012130 225.2541 134.7670 14.54111179309768",
    "OBJECT_ID": "1998-017A",
    "OBJECT_NUMBER": "25260",
    "SEMIMAJOR_AXIS": "7090.390",
    "PERIOD": "99.030",
    "APOGEE": "720.855",
    "PERIGEE": "703.654",
    "DECAYED": "0"
  },
  {
    "COMMENT": "GENERATED VIA SPACETRACK.ORG API",
    "ORIGINATOR": "18 SPCS",
    "NORAD_CAT_ID": "25260",
    "OBJECT_NAME": "SPOT 4",
    "OBJECT_TYPE": "PAYLOAD",
    "CLASSIFICATION_TYPE": "U",
    "INTLDES": "98017A",
    "EPOCH": "2023-04-06 16:45:41",
    "EPOCH_MICROSECONDS": "172480",
    "MEAN_MOTION": "14.54111179",
    "ECCENTRICITY": "0.001213",
    "INCLINATION": "98.2606",
    "RA_OF_ASC_NODE": "190.5884",
    "ARG_OF_PERICENTER": "225.2541",
    "MEAN_ANOMALY": "134.767",
    "EPHEMERIS_TYPE": "0",
    "ELEMENT_SET_NO": "999",
    "REV_AT_EPOCH": "30952",
    "BSTAR": "0.00016561",
    "MEAN_MOTION_DOT": "0.00000655",
    "MEAN_MOTION_DDOT": "0",
    "FILE": "3882049",
    "TLE_LINE0": "0 SPOT 4",
    "TLE_LINE1": "1 25260U 98017A   23096.69839320  .00000655  00000-0  16561-3 0  9998",
    "TLE_LINE2": "2 25260  98.2606 190.5884 0012130 225.2541 134.7670 14.54111179309522",
    "OBJECT_ID": "1998-017A",
    "OBJECT_NUMBER": "25260",
    "SEMIMAJOR_AXIS": "7090.390",
    "PERIOD": "99.030",
    "APOGEE": "720.855",
    "PERIGEE": "703.654",
    "DECAYED": "0"
  },
  {
    "COMMENT": "GENERATED VIA SPACETRACK.ORG API",
    "ORIGINATOR": "18 SPCS",
    "NORAD_CAT_ID": "25260",
    "OBJECT_NAME": "SPOT 4",
    "OBJECT_TYPE": "PAYLOAD",
    "CLASSIFICATION_TYPE": "U",
    "INTLDES": "98017A",
    "EPOCH": "2023-04-07 05:58:23",
    "EPOCH_MICROSECONDS": "395296",
    "MEAN_MOTION": "14.54112178",
    "ECCENTRICITY": "0.0012158",
    "INCLINATION": "98.2606",
    "RA_OF_ASC_NODE": "191.1318",
    "ARG_OF_PERICENTER": "223.4535",
    "MEAN_ANOMALY": "136.5705",
    "EPHEMERIS_TYPE": "0",
    "ELEMENT_SET_NO": "999",
    "REV_AT_EPOCH": "30984",
    "BSTAR": "0.00017042",
    "MEAN_MOTION_DOT": "0.00000675",
    "MEAN_MOTION_DDOT": "0",
    "FILE": "3882283",
    "TLE_LINE0": "0 SPOT 4",
    "TLE_LINE1": "1 25260U 98017A   23097.24888189  .00000675  00000-0  17042-3 0  9994",
    "TLE_LINE2": "2 25260  98.2606 191.1318 0012158 223.4535 136.5705 14.54112178309848",
    "OBJECT_ID": "1998-017A",
    "OBJECT_NUMBER": "25260",
    "SEMIMAJOR_AXIS": "7090.386",
    "PERIOD": "99.029",
    "APOGEE": "720.872",
    "PERIGEE": "703.631",
    "DECAYED": "0"
  }
]